CSS (TIANHE)            
1 48274U 21035A   24136.83874918  .00051709  00000+0  52593-3 0  9998
2 48274  41.4680 280.6948 0003227 346.1452  13.9299 15.64296666174035
